start=new Date('2022-12-07T00:00:00.000Z').valueOf();
sats=[{"RCS_SIZE":"LARGE","DECAY_DATE":null,"TIME_SYSTEM":"UTC","TLE_LINE2":"2 45184  53.0561 324.2365 0001861  66.7778 293.3407 15.06394415154945","OBJECT_TYPE":"PAYLOAD","INCLINATION":"53.0561","CENTER_NAME":"EARTH","COUNTRY_CODE":"US","MEAN_MOTION_DOT":"-0.00000883","SEMIMAJOR_AXIS":"6925.366","MEAN_ANOMALY":"293.3407","REV_AT_EPOCH":"15494","SITE":"AFETR","RA_OF_ASC_NODE":"324.2365","TLE_LINE1":"1 45184U 20012G   22340.69464869 -.00000883  00000-0 -40412-4 0  9996","ELEMENT_SET_NO":"999","BSTAR":"-0.00004041200000","PERIOD":"95.592","FILE":"3683274","LAUNCH_DATE":"2020-02-17","PERIAPSIS":"545.942","EPHEMERIS_TYPE":"0","GP_ID":"219693584","OBJECT_ID":"2020-012G","MEAN_ELEMENT_THEORY":"SGP4","MEAN_MOTION_DDOT":"0.0000000000000","REF_FRAME":"TEME","NORAD_CAT_ID":"45184","OBJECT_NAME":"STARLINK-1205","ECCENTRICITY":"0.00018610","CLASSIFICATION_TYPE":"U","ARG_OF_PERICENTER":"66.7778","MEAN_MOTION":"15.06394415","EPOCH":"2022-12-06T16:40:17.646816","APOAPSIS":"548.519"},{"MEAN_MOTION_DOT":"-0.00000008","MEAN_ANOMALY":"302.6219","SEMIMAJOR_AXIS":"6925.383","RA_OF_ASC_NODE":"345.1230","REV_AT_EPOCH":"15495","SITE":"AFETR","PERIOD":"95.593","FILE":"3682904","ELEMENT_SET_NO":"999","TLE_LINE1":"1 45185U 20012H   22340.49745212 -.00000008  00000-0  18387-4 0  9993","BSTAR":"0.00001838700000","TIME_SYSTEM":"UTC","TLE_LINE2":"2 45185  53.0551 345.1230 0001642  57.4929 302.6219 15.06388647154956","RCS_SIZE":"LARGE","DECAY_DATE":null,"OBJECT_TYPE":"PAYLOAD","CENTER_NAME":"EARTH","INCLINATION":"53.0551","COUNTRY_CODE":"US","OBJECT_NAME":"STARLINK-1216","EPOCH":"2022-12-06T11:56:19.863168","ECCENTRICITY":"0.00016420","CLASSIFICATION_TYPE":"U","ARG_OF_PERICENTER":"57.4929","MEAN_MOTION":"15.06388647","APOAPSIS":"548.386","PERIAPSIS":"546.111","EPHEMERIS_TYPE":"0","LAUNCH_DATE":"2020-02-17","GP_ID":"219639980","OBJECT_ID":"2020-012H","MEAN_ELEMENT_THEORY":"SGP4","REF_FRAME":"TEME","MEAN_MOTION_DDOT":"0.0000000000000","NORAD_CAT_ID":"45185"},{"RA_OF_ASC_NODE":"344.1661","SITE":"AFETR","REV_AT_EPOCH":"15557","FILE":"3683274","PERIOD":"95.593","BSTAR":"-0.00012164000000","TLE_LINE1":"1 45186U 20012J   22340.71123514 -.00002093  00000-0 -12164-3 0  9997","ELEMENT_SET_NO":"999","MEAN_MOTION_DOT":"-0.00002093","MEAN_ANOMALY":"293.1013","SEMIMAJOR_AXIS":"6925.376","CENTER_NAME":"EARTH","INCLINATION":"53.0562","COUNTRY_CODE":"US","TLE_LINE2":"2 45186  53.0562 344.1661 0001833  67.0169 293.1013 15.06390928155571","TIME_SYSTEM":"UTC","RCS_SIZE":"LARGE","DECAY_DATE":null,"OBJECT_TYPE":"PAYLOAD","APOAPSIS":"548.511","OBJECT_NAME":"STARLINK-1224","EPOCH":"2022-12-06T17:04:10.716096","CLASSIFICATION_TYPE":"U","MEAN_MOTION":"15.06390928","ARG_OF_PERICENTER":"67.0169","ECCENTRICITY":"0.00018330","REF_FRAME":"TEME","MEAN_MOTION_DDOT":"0.0000000000000","MEAN_ELEMENT_THEORY":"SGP4","NORAD_CAT_ID":"45186","EPHEMERIS_TYPE":"0","PERIAPSIS":"545.972","LAUNCH_DATE":"2020-02-17","OBJECT_ID":"2020-012J","GP_ID":"219693099"},{"RA_OF_ASC_NODE":"344.1474","REV_AT_EPOCH":"15562","SITE":"AFETR","PERIOD":"95.593","FILE":"3683274","BSTAR":"-0.00003826300000","TLE_LINE1":"1 45187U 20012K   22340.71492246 -.00000851  00000-0 -38263-4 0  9998","ELEMENT_SET_NO":"999","MEAN_MOTION_DOT":"-0.00000851","MEAN_ANOMALY":"298.2909","SEMIMAJOR_AXIS":"6925.375","CENTER_NAME":"EARTH","INCLINATION":"53.0545","COUNTRY_CODE":"US","TIME_SYSTEM":"UTC","TLE_LINE2":"2 45187  53.0545 344.1474 0001556  61.8237 298.2909 15.06391211155627","RCS_SIZE":"LARGE","DECAY_DATE":null,"OBJECT_TYPE":"PAYLOAD","APOAPSIS":"548.318","OBJECT_NAME":"STARLINK-1225","EPOCH":"2022-12-06T17:09:29.300544","ECCENTRICITY":"0.00015560","CLASSIFICATION_TYPE":"U","ARG_OF_PERICENTER":"61.8237","MEAN_MOTION":"15.06391211","MEAN_ELEMENT_THEORY":"SGP4","REF_FRAME":"TEME","MEAN_MOTION_DDOT":"0.0000000000000","NORAD_CAT_ID":"45187","PERIAPSIS":"546.163","EPHEMERIS_TYPE":"0","LAUNCH_DATE":"2020-02-17","GP_ID":"219693849","OBJECT_ID":"2020-012K"},{"FILE":"3683274","PERIOD":"95.593","BSTAR":"-0.00001443900000","TLE_LINE1":"1 45188U 20012L   22340.61171446 -.00000497  00000-0 -14439-4 0  9999","ELEMENT_SET_NO":"999","RA_OF_ASC_NODE":"304.5947","SITE":"AFETR","REV_AT_EPOCH":"15612","MEAN_ANOMALY":"313.6591","SEMIMAJOR_AXIS":"6925.367","MEAN_MOTION_DOT":"-0.00000497","COUNTRY_CODE":"US","CENTER_NAME":"EARTH","INCLINATION":"53.0557","OBJECT_TYPE":"PAYLOAD","TLE_LINE2":"2 45188  53.0557 304.5947 0002108  46.4573 313.6591 15.06393974156125","TIME_SYSTEM":"UTC","DECAY_DATE":null,"RCS_SIZE":"LARGE","APOAPSIS":"548.692","EPOCH":"2022-12-06T14:40:52.129344","CLASSIFICATION_TYPE":"U","ARG_OF_PERICENTER":"46.4573","MEAN_MOTION":"15.06393974","ECCENTRICITY":"0.00021080","OBJECT_NAME":"STARLINK-1228","NORAD_CAT_ID":"45188","REF_FRAME":"TEME","MEAN_MOTION_DDOT":"0.0000000000000","MEAN_ELEMENT_THEORY":"SGP4","OBJECT_ID":"2020-012L","GP_ID":"219694084","EPHEMERIS_TYPE":"0","PERIAPSIS":"545.772","LAUNCH_DATE":"2020-02-17"},{"COUNTRY_CODE":"US","CENTER_NAME":"EARTH","INCLINATION":"53.0559","OBJECT_TYPE":"PAYLOAD","TLE_LINE2":"2 45189  53.0559 344.1274 0001514  70.1143 290.0009 15.06392926152852","TIME_SYSTEM":"UTC","DECAY_DATE":null,"RCS_SIZE":"LARGE","FILE":"3683274","PERIOD":"95.593","BSTAR":"-0.00005960500000","TLE_LINE1":"1 45189U 20012M   22340.71861193 -.00001169  00000-0 -59605-4 0  9997","ELEMENT_SET_NO":"999","RA_OF_ASC_NODE":"344.1274","SITE":"AFETR","REV_AT_EPOCH":"15285","MEAN_ANOMALY":"290.0009","SEMIMAJOR_AXIS":"6925.370","MEAN_MOTION_DOT":"-0.00001169","NORAD_CAT_ID":"45189","MEAN_MOTION_DDOT":"0.0000000000000","REF_FRAME":"TEME","MEAN_ELEMENT_THEORY":"SGP4","GP_ID":"219692351","OBJECT_ID":"2020-012M","EPHEMERIS_TYPE":"0","PERIAPSIS":"546.187","LAUNCH_DATE":"2020-02-17","APOAPSIS":"548.284","EPOCH":"2022-12-06T17:14:48.070752","MEAN_MOTION":"15.06392926","CLASSIFICATION_TYPE":"U","ARG_OF_PERICENTER":"70.1143","ECCENTRICITY":"0.00015140","OBJECT_NAME":"STARLINK-1230"},{"EPOCH":"2022-12-06T14:30:15.068448","ECCENTRICITY":"0.00018810","CLASSIFICATION_TYPE":"U","ARG_OF_PERICENTER":"48.2812","MEAN_MOTION":"15.06393782","OBJECT_NAME":"STARLINK-1234","APOAPSIS":"548.535","OBJECT_ID":"2020-012N","GP_ID":"219692601","PERIAPSIS":"545.930","EPHEMERIS_TYPE":"0","LAUNCH_DATE":"2020-02-17","NORAD_CAT_ID":"45190","MEAN_ELEMENT_THEORY":"SGP4","MEAN_MOTION_DDOT":"0.0000000000000","REF_FRAME":"TEME","MEAN_ANOMALY":"311.8338","SEMIMAJOR_AXIS":"6925.368","MEAN_MOTION_DOT":"-0.00000251","PERIOD":"95.593","FILE":"3683274","BSTAR":"0.00000203490000","TLE_LINE1":"1 45190U 20012N   22340.60434107 -.00000251  00000-0  20349-5 0  9992","ELEMENT_SET_NO":"999","RA_OF_ASC_NODE":"304.6380","REV_AT_EPOCH":"15607","SITE":"AFETR","OBJECT_TYPE":"PAYLOAD","TIME_SYSTEM":"UTC","TLE_LINE2":"2 45190  53.0550 304.6380 0001881  48.2812 311.8338 15.06393782156076","DECAY_DATE":null,"RCS_SIZE":"LARGE","COUNTRY_CODE":"US","CENTER_NAME":"EARTH","INCLINATION":"53.0550"},{"TIME_SYSTEM":"UTC","TLE_LINE2":"2 45191  53.0566 344.0910 0001736  51.1540 308.9604 15.06392834154989","RCS_SIZE":"LARGE","DECAY_DATE":null,"OBJECT_TYPE":"PAYLOAD","CENTER_NAME":"EARTH","INCLINATION":"53.0566","COUNTRY_CODE":"US","MEAN_MOTION_DOT":"-0.00000887","MEAN_ANOMALY":"308.9604","SEMIMAJOR_AXIS":"6925.371","RA_OF_ASC_NODE":"344.0910","REV_AT_EPOCH":"15498","SITE":"AFETR","PERIOD":"95.593","FILE":"3683306","TLE_LINE1":"1 45191U 20012P   22340.72598455 -.00000887  00000-0 -40628-4 0  9990","BSTAR":"-0.00004062800000","ELEMENT_SET_NO":"999","PERIAPSIS":"546.033","EPHEMERIS_TYPE":"0","LAUNCH_DATE":"2020-02-17","OBJECT_ID":"2020-012P","GP_ID":"219700775","MEAN_ELEMENT_THEORY":"SGP4","REF_FRAME":"TEME","MEAN_MOTION_DDOT":"0.0000000000000","NORAD_CAT_ID":"45191","OBJECT_NAME":"STARLINK-1236","EPOCH":"2022-12-06T17:25:25.065120","ECCENTRICITY":"0.00017360","CLASSIFICATION_TYPE":"U","MEAN_MOTION":"15.06392834","ARG_OF_PERICENTER":"51.1540","APOAPSIS":"548.438"},{"OBJECT_ID":"2020-012Q","GP_ID":"219640037","LAUNCH_DATE":"2020-02-17","EPHEMERIS_TYPE":"0","PERIAPSIS":"546.028","NORAD_CAT_ID":"45192","REF_FRAME":"TEME","MEAN_MOTION_DDOT":"0.0000000000000","MEAN_ELEMENT_THEORY":"SGP4","CLASSIFICATION_TYPE":"U","ARG_OF_PERICENTER":"60.1623","MEAN_MOTION":"15.06403918","ECCENTRICITY":"0.00016950","EPOCH":"2022-12-06T10:26:05.184672","OBJECT_NAME":"STARLINK-1237","APOAPSIS":"548.375","OBJECT_TYPE":"PAYLOAD","RCS_SIZE":"LARGE","DECAY_DATE":null,"TLE_LINE2":"2 45192  53.0547 345.4009 0001695  60.1623 299.9534 15.06403918154650","TIME_SYSTEM":"UTC","COUNTRY_CODE":"US","INCLINATION":"53.0547","CENTER_NAME":"EARTH","SEMIMAJOR_AXIS":"6925.337","MEAN_ANOMALY":"299.9534","MEAN_MOTION_DOT":"0.00000037","TLE_LINE1":"1 45192U 20012Q   22340.43478223  .00000037  00000-0  21379-4 0  9996","BSTAR":"0.00002137900000","ELEMENT_SET_NO":"999","FILE":"3682908","PERIOD":"95.592","SITE":"AFETR","REV_AT_EPOCH":"15465","RA_OF_ASC_NODE":"345.4009"},{"COUNTRY_CODE":"US","INCLINATION":"53.0560","CENTER_NAME":"EARTH","OBJECT_TYPE":"PAYLOAD","DECAY_DATE":null,"RCS_SIZE":"LARGE","TLE_LINE2":"2 45193  53.0560 345.1522 0001851  58.2626 301.8543 15.06389733154660","TIME_SYSTEM":"UTC","BSTAR":"-0.00003939100000","TLE_LINE1":"1 45193U 20012R   22340.49007947 -.00000868  00000-0 -39391-4 0  9991","ELEMENT_SET_NO":"999","FILE":"3682908","PERIOD":"95.593","SITE":"AFETR","REV_AT_EPOCH":"15466","RA_OF_ASC_NODE":"345.1522","SEMIMAJOR_AXIS":"6925.380","MEAN_ANOMALY":"301.8543","MEAN_MOTION_DOT":"-0.00000868","NORAD_CAT_ID":"45193","REF_FRAME":"TEME","MEAN_MOTION_DDOT":"0.0000000000000","MEAN_ELEMENT_THEORY":"SGP4","OBJECT_ID":"2020-012R","GP_ID":"219640205","LAUNCH_DATE":"2020-02-17","EPHEMERIS_TYPE":"0","PERIAPSIS":"545.963","APOAPSIS":"548.527","CLASSIFICATION_TYPE":"U","ARG_OF_PERICENTER":"58.2626","MEAN_MOTION":"15.06389733","ECCENTRICITY":"0.00018510","EPOCH":"2022-12-06T11:45:42.866208","OBJECT_NAME":"STARLINK-1239"}];
